TRANSIT 16 [?]          
1 02807U 67048A   21348.42330953  .00000047  00000+0  57281-4 0  9996
2 02807  89.6490  43.0386 0020615  21.1215 349.5311 13.50279846685803
TRANSIT 17 [?]          
1 02965U 67092A   21348.91957382  .00000062  00000+0  74651-4 0  9992
2 02965  89.2491 137.5410 0048660 149.3565 322.5252 13.52991892673685
TRANSIT 18 [?]          
1 03133U 68012A   21348.85237727  .00000036  00000+0  39506-4 0  9991
2 03133  90.0020 271.5627 0077185  75.8748 346.9469 13.51118834372165
NNSS 19 [?]             
1 04507U 70067A   21349.11577400  .00000028  00000+0  25707-4 0  9994
2 04507  89.9120 240.9051 0171390 197.3269 162.1989 13.50789062525667
NNSS O-20 [?]           
1 06909U 73081A   21348.85813923  .00000085  00000+0  75120-4 0  9991
2 06909  89.8169 281.0180 0157943 129.2718 232.2579 13.70623058604012
TRANSAT [?]             
1 10457U 77106A   21348.94976722  .00000042  00000+0  51330-4 0  9993
2 10457  89.6925 128.2850 0026984  79.6339  32.6768 13.48657307171016
NOVA I [?]              
1 12458U 81044A   21349.00349705  .00000028  00000+0  46067-4 0  9990
2 12458  89.8966 109.6008 0014962 161.0111 268.8673 13.23046715959235
NOVA 3 [?]              
1 15362U 84110A   21349.51931245  .00000004  00000+0 -10968-4 0  9992
2 15362  90.0948  65.3355 0032391  32.2907 339.4188 13.22814863794461
OSCAR 30 [?]            
1 15935U 85066A   21349.48723884  .00000034  00000+0  48325-4 0  9993
2 15935  90.1768  74.7695 0167801 236.8851 132.6117 13.35729433769913
OSCAR 24 [?]            
1 15936U 85066B   21348.67478437  .00000045  00000+0  68106-4 0  9996
2 15936  90.1698  66.8469 0168063 244.7587 271.4012 13.35590374771652
POLAR BEAR [?]          
1 17070U 86088A   21348.70241448  .00000033  00000+0  22760-4 0  9999
2 17070  89.5543 246.1993 0038157 197.7703 190.6440 13.74840549759294
OSCAR 27 [?]            
1 18361U 87080A   21348.73512986  .00000037  00000+0  45648-4 0  9991
2 18361  90.3242  28.2169 0106333  82.4958 278.8255 13.44535960679493
OSCAR 29 [?]            
1 18362U 87080B   21349.38517591  .00000038  00000+0  48221-4 0  9992
2 18362  90.3253  28.5478 0108056 100.1999 272.3960 13.44129472679432
OSCAR 23 [?]            
1 19070U 88033A   21348.88592800  .00000053  00000+0  94817-4 0  9997
2 19070  90.3373 330.7340 0188245 276.8848 142.7442 13.27500143628966
OSCAR 32 [?]            
1 19071U 88033B   21348.90307899  .00000035  00000+0  58755-4 0  9994
2 19071  90.3374 330.8162 0186444 264.8360 150.4064 13.27680803629066
NOVA 11 [?]             
1 19223U 88052A   21349.49238867  .00000001  00000+0 -18822-4 0  9992
2 19223  89.9753  81.3775 0032098  73.8892 298.3615 13.22731251616969
OSCAR 25 [?]            
1 19419U 88074A   21349.14976652  .00000059  00000+0  84599-4 0  9992
2 19419  90.0005  17.8398 0098329  86.7028 338.6119 13.42268492630986
OSCAR 31 [?]            
1 19420U 88074B   21348.73264876  .00000045  00000+0  60427-4 0  9995
2 19420  90.0015  17.9970 0096475  82.1447  52.5301 13.42282475630769
